OBJECT_NAME,OBJECT_ID,EPOCH,MEAN_MOTION,ECCENTRICITY,INCLINATION,RA_OF_ASC_NODE,ARG_OF_PERICENTER,MEAN_ANOMALY,EPHEMERIS_TYPE,CLASSIFICATION_TYPE,NORAD_CAT_ID,ELEMENT_SET_NO,REV_AT_EPOCH,BSTAR,MEAN_MOTION_DOT,MEAN_MOTION_DDOT
LEMUR-2-FINNIAN,2025-276DX,2026-07-10T00:29:46.720032,15.00579499,.00079099,97.5341,261.2995,19.7735,340.3794,0,U,66782,999,2342,.16176101E-3,.1985E-4,0
LEMUR-2-STARLIGHT,2025-276DY,2026-07-10T03:07:45.492096,14.99316422,.00147717,97.5230,260.9845,62.0755,298.1962,0,U,66783,999,3363,.38742581E-3,.4687E-4,0
LEMUR-2-TARTIFLETTE,2025-276DZ,2026-07-09T03:03:48.775104,14.99294218,.00137939,97.5229,260.0239,72.8301,287.4432,0,U,66784,999,3348,.28474227E-3,.3426E-4,0
LEMUR-2-VUKASIN,2025-276EA,2026-07-09T18:28:26.859648,15.00515399,.00038823,97.5243,260.9931,70.6713,289.4931,0,U,66785,999,3353,.28513553E-3,.3537E-4,0
LEMUR-2-HOTSPUR-TOM,2025-276EB,2026-07-09T22:08:31.593696,14.99208118,.0013867,97.5221,260.7678,61.7476,298.5146,0,U,66786,999,3353,.31921005E-3,.3839E-4,0
LEMUR-2-MYRA,2025-276EC,2026-07-09T14:26:30.858720,15.00547888,.00185744,97.5217,260.7505,71.1590,289.1646,0,U,66787,999,3357,.33740262E-3,.4214E-4,0
LEMUR-2 FIKRETDENGIZ,2026-004A,2026-07-09T17:20:41.873568,14.88491309,.0010439,97.8024,188.9369,71.1066,289.1282,0,U,67363,999,2663,.26760836E-3,.2433E-4,0
TWILIGHT-1 OBJECT B,2026-004B,2026-07-10T05:28:19.732224,14.87783017,.0010013,97.8071,189.4384,60.0405,300.1805,0,U,67364,999,2671,.13800507E-3,.1206E-4,0
LEMUR-2-MARIO-SOUSA,2026-004C,2026-07-10T07:23:53.676096,14.88703210,.0010049,97.7996,189.5087,70.7060,289.5243,0,U,67365,999,2673,.26917649E-3,.2461E-4,0
LEMUR-2-SONNENBLUME,2026-004E,2026-07-10T05:49:55.562016,14.88438367,.00096078,97.7993,189.4195,72.2436,287.9829,0,U,67367,999,2672,.16608899E-3,.1487E-4,0
LEMUR-2-WOBLER,2026-004F,2026-07-10T05:35:39.535872,14.88677606,.00097782,97.8048,189.5553,63.8201,296.4020,0,U,67368,999,2672,.23594239E-3,.2149E-4,0
LEMUR-2-GRAM-E-SUE,2026-004H,2026-07-09T10:02:16.225440,14.88573884,.00088105,97.7979,188.6239,76.6994,283.5205,0,U,67370,999,2660,.20247652E-3,.1831E-4,0
LEMUR-2-KATIE,2026-004AA,2026-07-09T17:12:57.933216,14.90219671,.00038887,97.8041,189.4514,45.7601,314.3936,0,U,67387,999,2666,.302579E-3,.2879E-4,0
LEMUR-2-HCS-BAZUS,2026-004AB,2026-07-09T17:10:41.165472,14.90243096,.00033738,97.8032,189.4291,46.2274,313.9222,0,U,67388,999,2666,.15072027E-3,.1407E-4,0
